{
  "type": "FeatureCollection",
  "features": [
    {
      "type": "Feature",
      "properties": {
        "norad_id": 39160,
        "name": "VNREDSAT 1",
        "group": "resource",
        "lat": -6.288444847344309,
        "lon": 32.89338419914766,
        "alt_km": 681.1828467598752,
        "timestamp": "2025-12-02T08:59:32.376570+00:00",
        "meta_object_name": "VNREDSAT 1",
        "meta_object_id": "2013-021B",
        "meta_epoch": "2025-12-02T04:06:11.746656",
        "meta_mean_motion": 14.64896095,
        "meta_eccentricity": 0.0001378,
        "meta_inclination": 97.9388,
        "meta_ra_of_asc_node": 31.8157,
        "meta_arg_of_pericenter": 84.0227,
        "meta_mean_anomaly": 276.1134,
        "meta_ephemeris_type": 0,
        "meta_classification_type": "U",
        "meta_norad_cat_id": 39160,
        "meta_element_set_no": 999,
        "meta_rev_at_epoch": 67144,
        "meta_bstar": 0.00017255,
        "meta_mean_motion_dot": 8.77e-06,
        "meta_mean_motion_ddot": 0,
        "tle_line1": "1 39160U 13021B   25336.17096929  .00000877  00000+0  17255-3 0  9992",
        "tle_line2": "2 39160  97.9388  31.8157 0001378  84.0227 276.1134 14.64896095671440"
      },
      "geometry": {
        "type": "Point",
        "coordinates": [
          32.89338419914766,
          -6.288444847344309
        ]
      }
    },
    {
      "type": "Feature",
      "properties": {
        "norad_id": 39227,
        "name": "ARIRANG-5 (KOMPSAT-5)",
        "group": "resource",
        "lat": 36.5518369058934,
        "lon": 155.13339244746194,
        "alt_km": 548.4514475378264,
        "timestamp": "2025-12-02T08:59:32.376581+00:00",
        "meta_object_name": "ARIRANG-5 (KOMPSAT-5)",
        "meta_object_id": "2013-042A",
        "meta_epoch": "2025-12-02T04:02:24.418752",
        "meta_mean_motion": 15.04496383,
        "meta_eccentricity": 0.0004372,
        "meta_inclination": 97.6161,
        "meta_ra_of_asc_node": 160.6231,
        "meta_arg_of_pericenter": 84.3904,
        "meta_mean_anomaly": 275.7821,
        "meta_ephemeris_type": 0,
        "meta_classification_type": "U",
        "meta_norad_cat_id": 39227,
        "meta_element_set_no": 999,
        "meta_rev_at_epoch": 67423,
        "meta_bstar": 0.00015795,
        "meta_mean_motion_dot": 2.15e-05,
        "meta_mean_motion_ddot": 0,
        "tle_line1": "1 39227U 13042A   25336.16833818  .00002150  00000+0  15795-3 0  9997",
        "tle_line2": "2 39227  97.6161 160.6231 0004372  84.3904 275.7821 15.04496383674235"
      },
      "geometry": {
        "type": "Point",
        "coordinates": [
          155.13339244746194,
          36.5518369058934
        ]
      }
    },
    {
      "type": "Feature",
      "properties": {
        "norad_id": 39418,
        "name": "SKYSAT-A",
        "group": "resource",
        "lat": 31.661728383623714,
        "lon": -148.49612085965995,
        "alt_km": 538.4796524681815,
        "timestamp": "2025-12-02T08:59:32.376591+00:00",
        "meta_object_name": "SKYSAT-A",
        "meta_object_id": "2013-066C",
        "meta_epoch": "2025-12-02T01:58:57.537696",
        "meta_mean_motion": 15.11477798,
        "meta_eccentricity": 0.002051,
        "meta_inclination": 97.413,
        "meta_ra_of_asc_node": 26.6153,
        "meta_arg_of_pericenter": 275.99,
        "meta_mean_anomaly": 83.8993,
        "meta_ephemeris_type": 0,
        "meta_classification_type": "U",
        "meta_norad_cat_id": 39418,
        "meta_element_set_no": 999,
        "meta_rev_at_epoch": 65869,
        "meta_bstar": 0.00027855,
        "meta_mean_motion_dot": 4.673e-05,
        "meta_mean_motion_ddot": 0,
        "tle_line1": "1 39418U 13066C   25336.08261039  .00004673  00000+0  27855-3 0  9998",
        "tle_line2": "2 39418  97.4130  26.6153 0020510 275.9900  83.8993 15.11477798658698"
      },
      "geometry": {
        "type": "Point",
        "coordinates": [
          -148.49612085965995,
          31.661728383623714
        ]
      }
    },
    {
      "type": "Feature",
      "properties": {
        "norad_id": 39419,
        "name": "DUBAISAT-2",
        "group": "resource",
        "lat": 51.25984182974198,
        "lon": -42.27574319435657,
        "alt_km": 532.0726004853386,
        "timestamp": "2025-12-02T08:59:32.376602+00:00",
        "meta_object_name": "DUBAISAT-2",
        "meta_object_id": "2013-066D",
        "meta_epoch": "2025-12-02T05:34:44.308992",
        "meta_mean_motion": 15.08195529,
        "meta_eccentricity": 0.0011635,
        "meta_inclination": 97.4444,
        "meta_ra_of_asc_node": 326.9661,
        "meta_arg_of_pericenter": 0.228,
        "meta_mean_anomaly": 359.8951,
        "meta_ephemeris_type": 0,
        "meta_classification_type": "U",
        "meta_norad_cat_id": 39419,
        "meta_element_set_no": 999,
        "meta_rev_at_epoch": 65668,
        "meta_bstar": 0.00038693,
        "meta_mean_motion_dot": 5.933e-05,
        "meta_mean_motion_ddot": 0,
        "tle_line1": "1 39419U 13066D   25336.23245728  .00005933  00000+0  38693-3 0  9995",
        "tle_line2": "2 39419  97.4444 326.9661 0011635   0.2280 359.8951 15.08195529656687"
      },
      "geometry": {
        "type": "Point",
        "coordinates": [
          -42.27574319435657,
          51.25984182974198
        ]
      }
    },
    {
      "type": "Feature",
      "properties": {
        "norad_id": 39574,
        "name": "GPM-CORE",
        "group": "resource",
        "lat": -36.36837742075731,
        "lon": 87.54128486113588,
        "alt_km": 431.5085096305893,
        "timestamp": "2025-12-02T08:59:32.376612+00:00",
        "meta_object_name": "GPM-CORE",
        "meta_object_id": "2014-009C",
        "meta_epoch": "2025-12-02T03:22:44.541120",
        "meta_mean_motion": 15.45120988,
        "meta_eccentricity": 0.0010576,
        "meta_inclination": 64.9753,
        "meta_ra_of_asc_node": 248.2024,
        "meta_arg_of_pericenter": 268.4684,
        "meta_mean_anomaly": 91.5245,
        "meta_ephemeris_type": 0,
        "meta_classification_type": "U",
        "meta_norad_cat_id": 39574,
        "meta_element_set_no": 999,
        "meta_rev_at_epoch": 66737,
        "meta_bstar": 0.00039212,
        "meta_mean_motion_dot": 0.00018502,
        "meta_mean_motion_ddot": 0,
        "tle_line1": "1 39574U 14009C   25336.14079330  .00018502  00000+0  39212-3 0  9993",
        "tle_line2": "2 39574  64.9753 248.2024 0010576 268.4684  91.5245 15.45120988667371"
      },
      "geometry": {
        "type": "Point",
        "coordinates": [
          87.54128486113588,
          -36.36837742075731
        ]
      }
    },
    {
      "type": "Feature",
      "properties": {
        "norad_id": 39634,
        "name": "SENTINEL-1A",
        "group": "resource",
        "lat": 65.93475220876249,
        "lon": -37.02113345010279,
        "alt_km": 688.4882787295628,
        "timestamp": "2025-12-02T08:59:32.376623+00:00",
        "meta_object_name": "SENTINEL-1A",
        "meta_object_id": "2014-016A",
        "meta_epoch": "2025-12-02T03:44:52.696608",
        "meta_mean_motion": 14.59200448,
        "meta_eccentricity": 0.0001258,
        "meta_inclination": 98.1805,
        "meta_ra_of_asc_node": 341.5538,
        "meta_arg_of_pericenter": 89.1195,
        "meta_mean_anomaly": 271.0149,
        "meta_ephemeris_type": 0,
        "meta_classification_type": "U",
        "meta_norad_cat_id": 39634,
        "meta_element_set_no": 999,
        "meta_rev_at_epoch": 62128,
        "meta_bstar": 6.6184e-05,
        "meta_mean_motion_dot": 2.66e-06,
        "meta_mean_motion_ddot": 0,
        "tle_line1": "1 39634U 14016A   25336.15616547  .00000266  00000+0  66184-4 0  9993",
        "tle_line2": "2 39634  98.1805 341.5538 0001258  89.1195 271.0149 14.59200448621286"
      },
      "geometry": {
        "type": "Point",
        "coordinates": [
          -37.02113345010279,
          65.93475220876249
        ]
      }
    },
    {
      "type": "Feature",
      "properties": {
        "norad_id": 39731,
        "name": "KAZEOSAT 1",
        "group": "resource",
        "lat": -39.11270885707222,
        "lon": 55.3678223021821,
        "alt_km": 758.7258904757919,
        "timestamp": "2025-12-02T08:59:32.376633+00:00",
        "meta_object_name": "KAZEOSAT 1",
        "meta_object_id": "2014-024A",
        "meta_epoch": "2025-12-02T04:10:47.628768",
        "meta_mean_motion": 14.42052239,
        "meta_eccentricity": 0.000105,
        "meta_inclination": 98.3446,
        "meta_ra_of_asc_node": 48.3181,
        "meta_arg_of_pericenter": 98.3974,
        "meta_mean_anomaly": 261.7335,
        "meta_ephemeris_type": 0,
        "meta_classification_type": "U",
        "meta_norad_cat_id": 39731,
        "meta_element_set_no": 999,
        "meta_rev_at_epoch": 61016,
        "meta_bstar": 0.00010039,
        "meta_mean_motion_dot": 2.87e-06,
        "meta_mean_motion_ddot": 0,
        "tle_line1": "1 39731U 14024A   25336.17416237  .00000287  00000+0  10039-3 0  9996",
        "tle_line2": "2 39731  98.3446  48.3181 0001050  98.3974 261.7335 14.42052239610163"
      },
      "geometry": {
        "type": "Point",
        "coordinates": [
          55.3678223021821,
          -39.11270885707222
        ]
      }
    }
  ]
}